H1 CPF 01  gfz 2022 10 17 00  7901 tandemx   
H2 1003001  6202 36605    2022 10 17 00 59 42 2022 10 22 00 00 42   120 1 1  0 0 0
H9
10 0 59873  55422.000000  0    4585735.228   3080401.775   4106046.197
10 0 59873  55542.000000  0    4204404.377   2595069.723   4790440.041
10 0 59873  55662.000000  0    3740777.216   2071781.859   5390524.802
10 0 59873  55782.000000  0    3202408.845   1521070.682   5895775.769
10 0 59873  55902.000000  0    2598340.087    953795.269   6297344.867
10 0 59873  56022.000000  0    1938940.209    380925.245   6588208.322
10 0 59873  56142.000000  0    1235725.864   -186670.173   6763283.477
10 0 59873  56262.000000  0     501157.681   -738427.747   6819514.330
10 0 59873  56382.000000  0    -251581.946  -1264287.029   6755921.015
10 0 59873  56502.000000  0   -1008825.434  -1754873.314   6573615.174
10 0 59873  56622.000000  0   -1756667.464  -2201664.866   6275780.298
10 0 59873  56742.000000  0   -2481217.927  -2597140.348   5867619.081
10 0 59873  56862.000000  0   -3168859.573  -2934907.137   5356270.858
10 0 59873  56982.000000  0   -3806508.786  -3209808.518   4750693.475
10 0 59873  57102.000000  0   -4381869.214  -3418004.821   4061509.928
10 0 59873  57222.000000  0   -4883673.936  -3557027.921   3300825.461
10 0 59873  57342.000000  0   -5301912.033  -3625808.228   2482017.316
10 0 59873  57462.000000  0   -5628035.581  -3624674.193   1619498.882
10 0 59873  57582.000000  0   -5855139.801  -3555322.488    728460.806
10 0 59873  57702.000000  0   -5978111.686  -3420758.973   -175403.499
10 0 59873  57822.000000  0   -5993743.870  -3225213.127  -1076182.680
10 0 59873  57942.000000  0   -5900809.895  -2974027.075  -1958037.779
10 0 59873  58062.000000  0   -5700097.455  -2673521.834  -2805488.941
10 0 59873  58182.000000  0   -5394401.879  -2330846.056  -3603691.952
10 0 59873  58302.000000  0   -4988479.764  -1953810.704  -4338700.190
10 0 59873  58422.000000  0   -4488965.149  -1550714.171  -4997706.342
10 0 59873  58542.000000  0   -3904250.556  -1130162.085  -5569260.753
10 0 59873  58662.000000  0   -3244335.672   -700885.553  -6043461.755
10 0 59873  58782.000000  0   -2520648.782   -271562.611  -6412115.997
10 0 59873  58902.000000  0   -1745844.481    149353.534  -6668868.412
10 0 59873  59022.000000  0    -933581.125    553795.969  -6809300.098
10 0 59873  59142.000000  0     -98283.779    934233.895  -6830995.720
10 0 59873  59262.000000  0     745105.622   1283809.031  -6733579.845
10 0 59873  59382.000000  0    1581388.231   1596455.312  -6518725.046
10 0 59873  59502.000000  0    2395377.020   1867003.116  -6190127.098
10 0 59873  59622.000000  0    3172167.963   2091264.173  -5753447.917
10 0 59873  59742.000000  0    3897409.471   2266096.188  -5216226.829
10 0 59873  59862.000000  0    4557567.341   2389447.096  -4587762.683
10 0 59873  59982.000000  0    5140181.863   2460377.866  -3878963.886
10 0 59873  60102.000000  0    5634109.379   2479062.484  -3102167.994
10 0 59873  60222.000000  0    6029744.286   2446765.274  -2270934.866
10 0 59873  60342.000000  0    6319217.518   2365795.695  -1399812.903
10 0 59873  60462.000000  0    6496562.511   2239440.499   -504083.249
10 0 59873  60582.000000  0    6557846.917   2071874.953    400512.836
10 0 59873  60702.000000  0    6501262.272   1868054.201   1298058.156
10 0 59873  60822.000000  0    6327173.733   1633589.607   2172746.140
10 0 59873  60942.000000  0    6038126.413   1374611.022   3009169.515
10 0 59873  61062.000000  0    5638805.915   1097618.988   3792599.570
10 0 59873  61182.000000  0    5135955.798    809331.304   4509251.857
10 0 59873  61302.000000  0    4538254.769    516528.031   5146530.429
10 0 59873  61422.000000  0    3856157.940    225898.523   5693249.782
10 0 59873  61542.000000  0    3101703.181    -56106.767   6139828.417
10 0 59873  61662.000000  0    2288290.556   -323414.148   6478450.125
10 0 59873  61782.000000  0    1430439.850   -570453.333   6703195.200
10 0 59873  61902.000000  0     543527.811   -792270.962   6810139.499
10 0 59873  62022.000000  0    -356489.836   -984628.259   6797417.891
10 0 59873  62142.000000  0   -1253365.002  -1144081.423   6665253.779
10 0 59873  62262.000000  0   -2130849.410  -1268043.378   6415954.517
10 0 59873  62382.000000  0   -2972986.938  -1354825.174   6053873.147
10 0 59873  62502.000000  0   -3764403.915  -1403657.446   5585339.409
10 0 59873  62622.000000  0   -4490594.505  -1414692.737   5018555.947
10 0 59873  62742.000000  0   -5138193.033  -1388987.398   4363460.087
10 0 59873  62862.000000  0   -5695227.913  -1328462.677   3631553.132
10 0 59873  62982.000000  0   -6151350.863  -1235845.897   2835700.533
10 0 59873  63102.000000  0   -6498038.521  -1114593.636   1989907.307
10 0 59873  63222.000000  0   -6728762.984   -968798.429   1109068.671
10 0 59873  63342.000000  0   -6839121.731   -803080.561    208700.280
10 0 59873  63462.000000  0   -6826924.853   -622467.864   -695343.367
10 0 59873  63582.000000  0   -6692238.017   -432266.796  -1587157.352
10 0 59873  63702.000000  0   -6437378.944   -237927.926  -2451074.029
10 0 59873  63822.000000  0   -6066871.142    -44910.438  -3271944.149
10 0 59873  63942.000000  0   -5587353.099    141452.773  -4035407.984
10 0 59873  64062.000000  0   -5007445.559    316084.915  -4728146.609
10 0 59873  64182.000000  0   -4337583.243    474287.044  -5338110.082
10 0 59873  64302.000000  0   -3589815.386    611849.232  -5854719.489
10 0 59873  64422.000000  0   -2777579.505    725147.523  -6269040.004
10 0 59873  64542.000000  0   -1915455.129    811226.188  -6573922.790
10 0 59873  64662.000000  0   -1018901.269    867864.167  -6764117.813
10 0 59873  64782.000000  0    -103981.598    893624.473  -6836353.580
10 0 59873  64902.000000  0     812916.060    887885.484  -6789386.354
10 0 59873  65022.000000  0    1715365.467    850853.964  -6624021.882
10 0 59873  65142.000000  0    2587190.751    783560.050  -6343103.643
10 0 59873  65262.000000  0    3412751.102    687834.123  -5951468.955
10 0 59873  65382.000000  0    4177217.801    566265.371  -5455873.416
10 0 59873  65502.000000  0    4866840.109    422142.503  -4864885.756
10 0 59873  65622.000000  0    5469197.347    259378.492  -4188751.502
10 0 59873  65742.000000  0    5973430.579     82419.344  -3439225.127
10 0 59873  65862.000000  0    6370448.460   -103860.915  -2629374.114
10 0 59873  65982.000000  0    6653104.471   -294277.180  -1773356.700
10 0 59873  66102.000000  0    6816338.615   -483459.508   -886174.567
10 0 59873  66222.000000  0    6857278.947   -665985.093     16592.859
10 0 59873  66342.000000  0    6775301.217   -836513.601    919067.508
10 0 59873  66462.000000  0    6572043.290   -989922.198   1805360.051
10 0 59873  66582.000000  0    6251374.793  -1121436.550   2659859.014
10 0 59873  66702.000000  0    5819319.256  -1226754.103   3467515.098
10 0 59873  66822.000000  0    5283934.639  -1302156.505   4214112.068
10 0 59873  66942.000000  0    4655154.368  -1344609.650   4886521.242
10 0 59873  67062.000000  0    3944592.809  -1351846.652   5472933.009
10 0 59873  67182.000000  0    3165321.481  -1322432.882   5963062.643
10 0 59873  67302.000000  0    2331619.808  -1255812.811   6348326.267
10 0 59873  67422.000000  0    1458707.938  -1152337.185   6621985.419
10 0 59873  67542.000000  0     562464.490  -1013270.087   6779259.813
10 0 59873  67662.000000  0    -340864.661   -840774.942   6817404.980
10 0 59873  67782.000000  0   -1234960.415   -637880.918   6735755.829
10 0 59873  67902.000000  0   -2103723.773   -408429.865   6535737.201
10 0 59873  68022.000000  0   -2931564.239   -157004.179   6220840.750
10 0 59873  68142.000000  0   -3703679.943    111163.036   5796569.004
10 0 59873  68262.000000  0   -4406325.695    390294.040   5270345.395
10 0 59873  68382.000000  0   -5027063.362    674187.071   4651390.180
10 0 59873  68502.000000  0   -5554990.121    956349.346   3950564.101
10 0 59873  68622.000000  0   -5980938.563   1230140.093   3180180.661
10 0 59873  68742.000000  0   -6297645.137   1488920.368   2353791.336
10 0 59873  68862.000000  0   -6499883.197   1726205.910   1485945.587
10 0 59873  68982.000000  0   -6584557.201   1935819.859    591930.113
10 0 59873  69102.000000  0   -6550753.735   2112041.420   -312508.611
10 0 59873  69222.000000  0   -6399747.672   2249745.506  -1211450.691
10 0 59873  69342.000000  0   -6134964.493   2344530.658  -2089091.457
10 0 59873  69462.000000  0   -5761900.165   2392832.531  -2930027.435
10 0 59873  69582.000000  0   -5287998.641   2392019.205  -3719532.908
10 0 59873  69702.000000  0   -4722492.346   2340465.514  -4443819.343
10 0 59873  69822.000000  0   -4076211.048   2237605.801  -5090273.594
10 0 59873  69942.000000  0   -3361364.154   2083964.551  -5647670.562
10 0 59873  70062.000000  0   -2591303.282   1881164.714  -6106358.263
10 0 59873  70182.000000  0   -1780268.668   1631913.621  -6458415.050
10 0 59873  70302.000000  0    -943123.580   1339966.656  -6697774.196
10 0 59873  70422.000000  0     -95085.062   1010070.028  -6820317.193
10 0 59873  70542.000000  0     748546.330    647884.367  -6823936.192
10 0 59873  70662.000000  0    1572655.499    259889.777  -6708568.527
10 0 59873  70782.000000  0    2362578.557   -146727.718  -6476197.469
10 0 59873  70902.000000  0    3104357.789   -564205.322  -6130821.842
10 0 59873  71022.000000  0    3784985.600   -984347.199  -5678394.100
10 0 59873  71142.000000  0    4392631.197  -1398680.193  -5126727.769
10 0 59873  71262.000000  0    4916850.281  -1798621.037  -4485374.928
10 0 59873  71382.000000  0    5348771.380  -2175651.164  -3765471.608
10 0 59873  71502.000000  0    5681255.404  -2521495.247  -2979553.873
10 0 59873  71622.000000  0    5909024.664  -2828300.147  -2141345.539
10 0 59873  71742.000000  0    6028756.762  -3088809.950  -1265520.732
10 0 59873  71862.000000  0    6039141.334  -3296532.643   -367446.279
99
